{"type": "FeatureCollection", "features": [ {"type": "Feature", "properties": {"norad_id": 66655, "name": "2025-274F", "group": "last-30-days", "lat": 26.06426010376985, "lon": -80.84920216940283, "alt_km": 590.6354932174736, "timestamp": "2025-12-21T22:41:40.163909+00:00", "meta": {"OBJECT_NAME": "2025-274F", "OBJECT_ID": "2025-274F", "EPOCH": "2025-12-21T12:54:51.043392", "MEAN_MOTION": 14.91180348, "ECCENTRICITY": 0.00047714, "INCLINATION": 97.734, "RA_OF_ASC_NODE": 282.5628, "ARG_OF_PERICENTER": 353.9344, "MEAN_ANOMALY": 6.1816, "EPHEMERIS_TYPE": 0, "CLASSIFICATION_TYPE": "U", "NORAD_CAT_ID": 66655, "ELEMENT_SET_NO": 999, "REV_AT_EPOCH": 371, "BSTAR": 1.2169234e-05, "MEAN_MOTION_DOT": 6.6e-07, "MEAN_MOTION_DDOT": 0}, "tle": {"line1": "1 66655U 25274F   25355.53809078  .00000066  00000+0  12169-4 0  9992", "line2": "2 66655  97.7340 282.5628 0004771 353.9344   6.1816 14.91180348  3715"}}, "geometry": {"type": "Point", "coordinates": [-80.84920216940283, 26.06426010376985]}}, {"type": "Feature", "properties": {"norad_id": 66656, "name": "2025-274G", "group": "last-30-days", "lat": 69.643179862307, "lon": -98.51736061568663, "alt_km": 591.8029012709094, "timestamp": "2025-12-21T22:41:40.163919+00:00", "meta": {"OBJECT_NAME": "2025-274G", "OBJECT_ID": "2025-274G", "EPOCH": "2025-12-21T14:19:48.283968", "MEAN_MOTION": 14.92320205, "ECCENTRICITY": 0.00127504, "INCLINATION": 97.7402, "RA_OF_ASC_NODE": 282.6445, "ARG_OF_PERICENTER": 224.3706, "MEAN_ANOMALY": 135.6493, "EPHEMERIS_TYPE": 0, "CLASSIFICATION_TYPE": "U", "NORAD_CAT_ID": 66656, "ELEMENT_SET_NO": 999, "REV_AT_EPOCH": 372, "BSTAR": 0.00021286495, "MEAN_MOTION_DOT": 2.122e-05, "MEAN_MOTION_DDOT": 0}, "tle": {"line1": "1 66656U 25274G   25355.59708662  .00002122  00000+0  21286-3 0  9990", "line2": "2 66656  97.7402 282.6445 0012750 224.3706 135.6493 14.92320205  3721"}}, "geometry": {"type": "Point", "coordinates": [-98.51736061568663, 69.643179862307]}}, {"type": "Feature", "properties": {"norad_id": 66657, "name": "SPIRONE", "group": "last-30-days", "lat": 81.8396326558827, "lon": -148.53545017288837, "alt_km": 589.484099385314, "timestamp": "2025-12-21T22:41:40.163931+00:00", "meta": {"OBJECT_NAME": "SPIRONE", "OBJECT_ID": "2025-274H", "EPOCH": "2025-12-21T14:15:30.091392", "MEAN_MOTION": 14.92498971, "ECCENTRICITY": 0.00108644, "INCLINATION": 97.74, "RA_OF_ASC_NODE": 282.6478, "ARG_OF_PERICENTER": 242.4617, "MEAN_ANOMALY": 117.5499, "EPHEMERIS_TYPE": 0, "CLASSIFICATION_TYPE": "U", "NORAD_CAT_ID": 66657, "ELEMENT_SET_NO": 999, "REV_AT_EPOCH": 372, "BSTAR": 0.00020017552, "MEAN_MOTION_DOT": 2e-05, "MEAN_MOTION_DDOT": 0}, "tle": {"line1": "1 66657U 25274H   25355.59409828  .00002000  00000+0  20018-3 0  9990", "line2": "2 66657  97.7400 282.6478 0010864 242.4617 117.5499 14.92498971  3723"}}, "geometry": {"type": "Point", "coordinates": [-148.53545017288837, 81.8396326558827]}}, {"type": "Feature", "properties": {"norad_id": 66658, "name": "2025-274J", "group": "last-30-days", "lat": 74.81008442268221, "lon": 133.06259445403794, "alt_km": 588.7030373231819, "timestamp": "2025-12-21T22:41:40.163941+00:00", "meta": {"OBJECT_NAME": "2025-274J", "OBJECT_ID": "2025-274J", "EPOCH": "2025-12-21T14:11:21.115968", "MEAN_MOTION": 14.92668879, "ECCENTRICITY": 0.00113836, "INCLINATION": 97.74, "RA_OF_ASC_NODE": 282.6517, "ARG_OF_PERICENTER": 245.7595, "MEAN_ANOMALY": 114.2435, "EPHEMERIS_TYPE": 0, "CLASSIFICATION_TYPE": "U", "NORAD_CAT_ID": 66658, "ELEMENT_SET_NO": 999, "REV_AT_EPOCH": 372, "BSTAR": 0.00018553694, "MEAN_MOTION_DOT": 1.858e-05, "MEAN_MOTION_DDOT": 0}, "tle": {"line1": "1 66658U 25274J   25355.59121662  .00001858  00000+0  18554-3 0  9990", "line2": "2 66658  97.7400 282.6517 0011383 245.7595 114.2435 14.92668879  3726"}}, "geometry": {"type": "Point", "coordinates": [133.06259445403794, 74.81008442268221]}}, {"type": "Feature", "properties": {"norad_id": 66659, "name": "JACK K", "group": "last-30-days", "lat": 59.16554190100832, "lon": 116.17858177831083, "alt_km": 588.3135526914584, "timestamp": "2025-12-21T22:41:40.163951+00:00", "meta": {"OBJECT_NAME": "JACK K", "OBJECT_ID": "2025-274K", "EPOCH": "2025-12-21T12:30:22.835232", "MEAN_MOTION": 14.92853136, "ECCENTRICITY": 0.00120664, "INCLINATION": 97.7402, "RA_OF_ASC_NODE": 282.5905, "ARG_OF_PERICENTER": 247.6711, "MEAN_ANOMALY": 112.323, "EPHEMERIS_TYPE": 0, "CLASSIFICATION_TYPE": "U", "NORAD_CAT_ID": 66659, "ELEMENT_SET_NO": 999, "REV_AT_EPOCH": 371, "BSTAR": 0.0001684699, "MEAN_MOTION_DOT": 1.69e-05, "MEAN_MOTION_DDOT": 0}, "tle": {"line1": "1 66659U 25274K   25355.52109763  .00001690  00000+0  16847-3 0  9999", "line2": "2 66659  97.7402 282.5905 0012066 247.6711 112.3230 14.92853136  3712"}}, "geometry": {"type": "Point", "coordinates": [116.17858177831083, 59.16554190100832]}}, {"type": "Feature", "properties": {"norad_id": 66660, "name": "K-HERO", "group": "last-30-days", "lat": 45.87939523390476, "lon": 111.07799113423084, "alt_km": 588.1378687298757, "timestamp": "2025-12-21T22:41:40.163961+00:00", "meta": {"OBJECT_NAME": "K-HERO", "OBJECT_ID": "2025-274L", "EPOCH": "2025-12-21T12:26:47.114304", "MEAN_MOTION": 14.93004073, "ECCENTRICITY": 0.00126795, "INCLINATION": 97.7408, "RA_OF_ASC_NODE": 282.5948, "ARG_OF_PERICENTER": 248.4634, "MEAN_ANOMALY": 111.5234, "EPHEMERIS_TYPE": 0, "CLASSIFICATION_TYPE": "U", "NORAD_CAT_ID": 66660, "ELEMENT_SET_NO": 999, "REV_AT_EPOCH": 371, "BSTAR": 0.0001624415, "MEAN_MOTION_DOT": 1.634e-05, "MEAN_MOTION_DDOT": 0}, "tle": {"line1": "1 66660U 25274L   25355.51860086  .00001634  00000+0  16244-3 0  9991", "line2": "2 66660  97.7408 282.5948 0012679 248.4634 111.5234 14.93004073  3714"}}, "geometry": {"type": "Point", "coordinates": [111.07799113423084, 45.87939523390476]}}, {"type": "Feature", "properties": {"norad_id": 66661, "name": "SNUGLITE-III", "group": "last-30-days", "lat": 32.9946471885049, "lon": 108.0861249157978, "alt_km": 588.0675355523908, "timestamp": "2025-12-21T22:41:40.163973+00:00", "meta": {"OBJECT_NAME": "SNUGLITE-III", "OBJECT_ID": "2025-274M", "EPOCH": "2025-12-21T07:33:49.684896", "MEAN_MOTION": 14.9313797, "ECCENTRICITY": 0.00132785, "INCLINATION": 97.7403, "RA_OF_ASC_NODE": 282.3994, "ARG_OF_PERICENTER": 250.47, "MEAN_ANOMALY": 109.5086, "EPHEMERIS_TYPE": 0, "CLASSIFICATION_TYPE": "U", "NORAD_CAT_ID": 66661, "ELEMENT_SET_NO": 999, "REV_AT_EPOCH": 368, "BSTAR": 0.00016588252, "MEAN_MOTION_DOT": 1.676e-05, "MEAN_MOTION_DDOT": 0}, "tle": {"line1": "1 66661U 25274M   25355.31515839  .00001676  00000+0  16588-3 0  9990", "line2": "2 66661  97.7403 282.3994 0013278 250.4700 109.5086 14.93137970  3683"}}, "geometry": {"type": "Point", "coordinates": [108.0861249157978, 32.9946471885049]}}, {"type": "Feature", "properties": {"norad_id": 66662, "name": "2025-274N", "group": "last-30-days", "lat": 27.895498969428004, "lon": 107.15134638924079, "alt_km": 587.8835931516314, "timestamp": "2025-12-21T22:41:40.163983+00:00", "meta": {"OBJECT_NAME": "2025-274N", "OBJECT_ID": "2025-274N", "EPOCH": "2025-12-21T13:58:27.938784", "MEAN_MOTION": 14.93194178, "ECCENTRICITY": 0.0013728, "INCLINATION": 97.7407, "RA_OF_ASC_NODE": 282.6646, "ARG_OF_PERICENTER": 249.3128, "MEAN_ANOMALY": 110.662, "EPHEMERIS_TYPE": 0, "CLASSIFICATION_TYPE": "U", "NORAD_CAT_ID": 66662, "ELEMENT_SET_NO": 999, "REV_AT_EPOCH": 372, "BSTAR": 0.00015176961, "MEAN_MOTION_DOT": 1.531e-05, "MEAN_MOTION_DDOT": 0}, "tle": {"line1": "1 66662U 25274N   25355.58226781  .00001531  00000+0  15177-3 0  9998", "line2": "2 66662  97.7407 282.6646 0013728 249.3128 110.6620 14.93194178  3721"}}, "geometry": {"type": "Point", "coordinates": [107.15134638924079, 27.895498969428004]}}, {"type": "Feature", "properties": {"norad_id": 66663, "name": "KSLV-II R/B", "group": "last-30-days", "lat": 6.506433456580865, "lon": 104.09253506925573, "alt_km": 592.6761057536432, "timestamp": "2025-12-21T22:41:40.163993+00:00", "meta": {"OBJECT_NAME": "KSLV-II R/B", "OBJECT_ID": "2025-274P", "EPOCH": "2025-12-20T18:39:17.894880", "MEAN_MOTION": 14.97471728, "ECCENTRICITY": 0.0056938, "INCLINATION": 97.7441, "RA_OF_ASC_NODE": 282.0453, "ARG_OF_PERICENTER": 291.1678, "MEAN_ANOMALY": 68.3465, "EPHEMERIS_TYPE": 0, "CLASSIFICATION_TYPE": "U", "NORAD_CAT_ID": 66663, "ELEMENT_SET_NO": 999, "REV_AT_EPOCH": 361, "BSTAR": 0.00085036, "MEAN_MOTION_DOT": 0.00010185, "MEAN_MOTION_DDOT": 0}, "tle": {"line1": "1 66663U 25274P   25354.77729045  .00010185  00000+0  85036-3 0  9996", "line2": "2 66663  97.7441 282.0453 0056938 291.1678  68.3465 14.97471728  3612"}}, "geometry": {"type": "Point", "coordinates": [104.09253506925573, 6.506433456580865]}}, {"type": "Feature", "properties": {"norad_id": 66664, "name": "SOYUZ-MS 28", "group": "last-30-days", "lat": -43.057847473230254, "lon": 49.13450854199041, "alt_km": 419.84894252779304, "timestamp": "2025-12-21T22:41:40.164003+00:00", "meta": {"OBJECT_NAME": "SOYUZ-MS 28", "OBJECT_ID": "2025-275A", "EPOCH": "2025-12-21T13:40:08.668128", "MEAN_MOTION": 15.49703708, "ECCENTRICITY": 0.00031656, "INCLINATION": 51.6324, "RA_OF_ASC_NODE": 98.7522, "ARG_OF_PERICENTER": 281.5679, "MEAN_ANOMALY": 78.4955, "EPHEMERIS_TYPE": 0, "CLASSIFICATION_TYPE": "U", "NORAD_CAT_ID": 66664, "ELEMENT_SET_NO": 999, "REV_AT_EPOCH": 128, "BSTAR": 0.0001683656, "MEAN_MOTION_DOT": 9.066e-05, "MEAN_MOTION_DDOT": 0}, "tle": {"line1": "1 66664U 25275A   25355.56954477  .00009066  00000+0  16837-3 0  9994", "line2": "2 66664  51.6324  98.7522 0003165 281.5679  78.4955 15.49703708  1280"}}, "geometry": {"type": "Point", "coordinates": [49.13450854199041, -43.057847473230254]}}]}